NOAA 15                 
1 25338U 98030A   24190.13717881  .00000300  00000+0  14224-3 0  9991
2 25338  98.5674 216.8257 0009085 262.4140  97.6009 14.26621635360426
NOAA 18                 
1 28654U 05018A   24190.16452404  .00000287  00000+0  17660-3 0  9990
2 28654  98.8743 266.9554 0014165   8.5629 351.5782 14.13247676986229
NOAA 19                 
1 33591U 09005A   24190.04808462  .00000265  00000+0  16638-3 0  9992
2 33591  99.0460 246.0670 0013084 230.4905 129.5111 14.13042357794577
METOP-B                 
1 38771U 12049A   24189.86782707  .00000206  00000+0  11384-3 0  9998
2 38771  98.6269 246.6258 0001377  83.1031 277.0303 14.21449700612480
GSAT0101 (PRN E11)      
1 37846U 11060A   24188.49395918 -.00000101  00000+0  00000+0 0  9998
2 37846  57.1296   1.0112 0003170  56.3380 303.6973  1.70475955 79001
GSAT0102 (PRN E12)      
1 37847U 11060B   24189.29379473 -.00000100  00000+0  00000+0 0  9995
2 37847  57.1305   0.9896 0002586  16.2207 160.3380  1.70475453 79028
GSAT0103 (PRN E19)      
1 38857U 12055A   24183.25389671 -.00000009  00000+0  00000+0 0  9991
2 38857  55.4124 121.2192 0004732 281.2563  78.6505  1.70473498 72806
GSAT0201 (PRN E18)      
1 40128U 14050A   24188.49113454 -.00000092  00000+0  00000+0 0  9999
2 40128  49.6397 302.2888 1612072 152.0120 217.7162  1.85519543 65138
GSAT0202 (PRN E14)      
1 40129U 14050B   24188.21036770 -.00000091  00000+0  00000+0 0  9994
2 40129  49.6571 301.3771 1610909 152.8009 216.6766  1.85520190 67292
METEOSAT-9 (MSG-2)      
1 28912U 05049B   24189.20120362  .00000118  00000+0  00000+0 0  9998
2 28912   7.7316  60.7049 0001755 358.0314 344.9946  1.00273503 67953
EWS-G1 (GOES 13)        
1 29155U 06018A   24189.57469050 -.00000293  00000+0  00000+0 0  9990
2 29155   2.6785  85.0643 0078855 255.6102 298.5354  0.99071226 66365
GOES 14                 
1 35491U 09033A   24189.59987248 -.00000070  00000+0  00000+0 0  9999
2 35491   0.3872 102.1286 0003613   6.0744 285.2822  1.00272645 55048
EWS-G2 (GOES 15)        
1 36411U 10008A   24190.13449039  .00000037  00000+0  00000+0 0  9991
2 36411   0.3576  89.0433 0002909 107.6141 199.4813  1.00271512 52523
LUCH-5A                 
1 37951U 11074B   24189.48521876 -.00000056  00000+0  00000+0 0  9993
2 37951   6.9365  84.6576 0003858  26.9854 155.9302  1.00274518 45934
METEOSAT-10 (MSG-3)     
1 38552U 12035B   24189.83609924 -.00000012  00000+0  00000+0 0  9991
2 38552   3.0110  61.1444 0000410 285.3781 240.7468  1.00270994 44101
INSAT-3D                
1 39216U 13038B   24189.56624142 -.00000160  00000+0  00000+0 0  9996
2 39216   0.0441 274.4698 0002278 191.8771 105.6284  1.00271071 39967
LUCH-5V                 
1 39727U 14023A   24190.14119113 -.00000272  00000+0  00000+0 0  9995
2 39727   3.3483  75.9176 0002350  85.7171 270.4617  1.00269048555401
COSMOS 2501 (702K)      
1 40315U 14075A   24188.84212663  .00000059  00000+0  00000+0 0  9997
2 40315  63.6220 214.9927 0021013 211.4060 148.5323  2.13101503 74710
GPS BIIR-8  (PRN 16)    
1 27663U 03005A   24189.14616833  .00000025  00000+0  00000+0 0  9993
2 27663  55.0972 243.2015 0136368  47.4080 323.1818  2.00573724157077
GPS BIIR-11 (PRN 19)    
1 28190U 04009A   24189.50014565 -.00000072  00000+0  00000+0 0  9991
2 28190  55.4363 304.2292 0098338 149.2664 275.1084  2.00558792148719
GPS BIIR-13 (PRN 02)    
1 28474U 04045A   24190.09387139 -.00000106  00000+0  00000+0 0  9990
2 28474  55.4241 353.3733 0161847 292.9697 245.6258  2.00561498144192
GPS BIIRM-1 (PRN 17)    
1 28874U 05038A   24189.43238241 -.00000069  00000+0  00000+0 0  9990
2 28874  55.4822 301.6941 0136374 284.2483 114.9174  2.00554076137609
GPS BIIRM-3 (PRN 12)    
1 29601U 06052A   24188.94309752  .00000028  00000+0  00000+0 0  9991
2 29601  55.1280 242.1886 0084583  83.3001 277.7488  2.00568958129160
GPS BIIRM-4 (PRN 15)    
1 32260U 07047A   24189.24519780 -.00000033  00000+0  00000+0 0  9996
2 32260  53.6165 109.4192 0156069  75.7147 286.0068  2.00563007122575
GPS BIIRM-5 (PRN 29)    
1 32384U 07062A   24189.80450043 -.00000070  00000+0  00000+0 0  9999
2 32384  55.6219 302.5446 0028881 153.1075  19.8245  2.00576066121345
GPS BIIF-3  (PRN 24)    
1 38833U 12053A   24189.34237431  .00000023  00000+0  00000+0 0  9990
2 38833  53.5191 172.6457 0152757  56.0257 305.3892  2.00559003 85204
GPS BIIF-4  (PRN 27)    
1 39166U 13023A   24189.20521929 -.00000063  00000+0  00000+0 0  9996
2 39166  55.0948 297.7759 0123798  45.0099 316.0097  2.00562775 81640
GPS BIIF-5  (PRN 30)    
1 39533U 14008A   24189.20517607  .00000028  00000+0  00000+0 0  9996
2 39533  53.6017 178.2515 0073372 220.9974 138.4331  2.00569684 75444
GPS BIIF-6  (PRN 06)    
1 39741U 14026A   24188.98419443 -.00000105  00000+0  00000+0 0  9997
2 39741  56.7097 359.1006 0030889 316.3519  43.4109  2.00567026 74291
GPS BIIF-7  (PRN 09)    
1 40105U 14045A   24189.07738401 -.00000027  00000+0  00000+0 0  9996
2 40105  54.9387 116.8140 0026246 114.8315 245.4248  2.00567763 71836
GPS BIIF-8  (PRN 03)    
1 40294U 14068A   24188.95072074 -.00000065  00000+0  00000+0 0  9995
2 40294  56.4374  58.4689 0054477  62.9459 297.6762  2.00561139 70960
